{
  "links" : {
    "next" : "https://api.nasa.gov/neo/rest/v1/feed?start_date=2008-03-23&end_date=2008-03-23&detailed=true&api_key=t0TVs3DtDT2H8Oy2Zy8m2eVrNsAVKAexjcZXUckd",
    "prev" : "https://api.nasa.gov/neo/rest/v1/feed?start_date=2008-03-21&end_date=2008-03-21&detailed=true&api_key=t0TVs3DtDT2H8Oy2Zy8m2eVrNsAVKAexjcZXUckd",
    "self" : "https://api.nasa.gov/neo/rest/v1/feed?start_date=2008-03-22&end_date=2008-03-22&detailed=true&api_key=t0TVs3DtDT2H8Oy2Zy8m2eVrNsAVKAexjcZXUckd"
  },
  "element_count" : 7,
  "near_earth_objects" : {
    "2008-03-22" : [ {
      "links" : {
        "self" : "https://api.nasa.gov/neo/rest/v1/neo/3404492?api_key=t0TVs3DtDT2H8Oy2Zy8m2eVrNsAVKAexjcZXUckd"
      },
      "neo_reference_id" : "3404492",
      "name" : "(2008 DW22)",
      "nasa_jpl_url" : "http://ssd.jpl.nasa.gov/sbdb.cgi?sstr=3404492",
      "absolute_magnitude_h" : 25.6,
      "estimated_diameter" : {
        "kilometers" : {
          "estimated_diameter_min" : 0.0201629919,
          "estimated_diameter_max" : 0.0450858206
        },
        "meters" : {
          "estimated_diameter_min" : 20.1629919443,
          "estimated_diameter_max" : 45.0858206172
        },
        "miles" : {
          "estimated_diameter_min" : 0.0125286985,
          "estimated_diameter_max" : 0.0280150214
        },
        "feet" : {
          "estimated_diameter_min" : 66.1515504905,
          "estimated_diameter_max" : 147.9193637137
        }
      },
      "is_potentially_hazardous_asteroid" : false,
      "close_approach_data" : [ {
        "close_approach_date" : "2008-03-22",
        "epoch_date_close_approach" : 1206169200000,
        "relative_velocity" : {
          "kilometers_per_second" : "3.8220567312",
          "kilometers_per_hour" : "13759.4042324413",
          "miles_per_hour" : "8549.5587020967"
        },
        "miss_distance" : {
          "astronomical" : "0.0870503169",
          "lunar" : "33.862575531",
          "kilometers" : "13022542",
          "miles" : "8091832.5"
        },
        "orbiting_body" : "Earth"
      } ],
      "orbital_data" : {
        "orbit_id" : "12",
        "orbit_determination_date" : "2017-04-06 09:04:13",
        "orbit_uncertainty" : "6",
        "minimum_orbit_intersection" : ".0876932",
        "jupiter_tisserand_invariant" : "4.046",
        "epoch_osculation" : "2458000.5",
        "eccentricity" : ".3818001408334101",
        "semi_major_axis" : "1.749768035984276",
        "inclination" : ".8356360656174266",
        "ascending_node_longitude" : "105.8201179623051",
        "orbital_period" : "845.4134346400167",
        "perihelion_distance" : "1.08170635341968",
        "perihelion_argument" : "75.06535921825284",
        "aphelion_distance" : "2.417829718548873",
        "perihelion_time" : "2457928.896208395058",
        "mean_anomaly" : "30.49083906355879",
        "mean_motion" : ".4258271577542302",
        "equinox" : "J2000"
      }
    }, {
      "links" : {
        "self" : "https://api.nasa.gov/neo/rest/v1/neo/2407324?api_key=t0TVs3DtDT2H8Oy2Zy8m2eVrNsAVKAexjcZXUckd"
      },
      "neo_reference_id" : "2407324",
      "name" : "407324 (2010 OB101)",
      "nasa_jpl_url" : "http://ssd.jpl.nasa.gov/sbdb.cgi?sstr=2407324",
      "absolute_magnitude_h" : 20.7,
      "estimated_diameter" : {
        "kilometers" : {
          "estimated_diameter_min" : 0.1925550782,
          "estimated_diameter_max" : 0.4305662442
        },
        "meters" : {
          "estimated_diameter_min" : 192.5550781879,
          "estimated_diameter_max" : 430.566244241
        },
        "miles" : {
          "estimated_diameter_min" : 0.1196481415,
          "estimated_diameter_max" : 0.2675413778
        },
        "feet" : {
          "estimated_diameter_min" : 631.7424027221,
          "estimated_diameter_max" : 1412.6189567557
        }
      },
      "is_potentially_hazardous_asteroid" : false,
      "close_approach_data" : [ {
        "close_approach_date" : "2008-03-22",
        "epoch_date_close_approach" : 1206169200000,
        "relative_velocity" : {
          "kilometers_per_second" : "11.4154063298",
          "kilometers_per_hour" : "41095.462787438",
          "miles_per_hour" : "25535.1224192278"
        },
        "miss_distance" : {
          "astronomical" : "0.1886187439",
          "lunar" : "73.3726959229",
          "kilometers" : "28216964",
          "miles" : "17533208"
        },
        "orbiting_body" : "Earth"
      } ],
      "orbital_data" : {
        "orbit_id" : "38",
        "orbit_determination_date" : "2017-04-06 09:21:46",
        "orbit_uncertainty" : "0",
        "minimum_orbit_intersection" : ".111432",
        "jupiter_tisserand_invariant" : "4.157",
        "epoch_osculation" : "2458000.5",
        "eccentricity" : ".5222659735763743",
        "semi_major_axis" : "1.616888166252531",
        "inclination" : "9.120400473116412",
        "ascending_node_longitude" : "260.9640256292153",
        "orbital_period" : "750.9627593594918",
        "perihelion_distance" : ".7724424939405344",
        "perihelion_argument" : "334.3268486047517",
        "aphelion_distance" : "2.461333838564528",
        "perihelion_time" : "2458339.022746081180",
        "mean_anomaly" : "197.7174006695512",
        "mean_motion" : ".4793846239553208",
        "equinox" : "J2000"
      }
    }, {
      "links" : {
        "self" : "https://api.nasa.gov/neo/rest/v1/neo/3327361?api_key=t0TVs3DtDT2H8Oy2Zy8m2eVrNsAVKAexjcZXUckd"
      },
      "neo_reference_id" : "3327361",
      "name" : "(2006 EK53)",
      "nasa_jpl_url" : "http://ssd.jpl.nasa.gov/sbdb.cgi?sstr=3327361",
      "absolute_magnitude_h" : 23.0,
      "estimated_diameter" : {
        "kilometers" : {
          "estimated_diameter_min" : 0.0667659413,
          "estimated_diameter_max" : 0.1492931834
        },
        "meters" : {
          "estimated_diameter_min" : 66.7659413495,
          "estimated_diameter_max" : 149.2931834393
        },
        "miles" : {
          "estimated_diameter_min" : 0.0414864197,
          "estimated_diameter_max" : 0.0927664547
        },
        "feet" : {
          "estimated_diameter_min" : 219.0483710172,
          "estimated_diameter_max" : 489.807047955
        }
      },
      "is_potentially_hazardous_asteroid" : false,
      "close_approach_data" : [ {
        "close_approach_date" : "2008-03-22",
        "epoch_date_close_approach" : 1206169200000,
        "relative_velocity" : {
          "kilometers_per_second" : "28.7758054515",
          "kilometers_per_hour" : "103592.899625503",
          "miles_per_hour" : "64368.5992145243"
        },
        "miss_distance" : {
          "astronomical" : "0.4179565105",
          "lunar" : "162.5850830078",
          "kilometers" : "62525404",
          "miles" : "38851484"
        },
        "orbiting_body" : "Earth"
      } ],
      "orbital_data" : {
        "orbit_id" : "9",
        "orbit_determination_date" : "2017-04-06 09:08:55",
        "orbit_uncertainty" : "8",
        "minimum_orbit_intersection" : ".0136865",
        "jupiter_tisserand_invariant" : "5.833",
        "epoch_osculation" : "2453812.5",
        "eccentricity" : ".5178777990125424",
        "semi_major_axis" : "1.025596539770828",
        "inclination" : "2.22738619899776",
        "ascending_node_longitude" : "5.205431008144331",
        "orbital_period" : "379.3702294679509",
        "perihelion_distance" : ".4944628610794323",
        "perihelion_argument" : "41.17288887818044",
        "aphelion_distance" : "1.556730218462224",
        "perihelion_time" : "2453736.947945601585",
        "mean_anomaly" : "71.69444903880404",
        "mean_motion" : ".9489410924649603",
        "equinox" : "J2000"
      }
    } ]
  }
}